{"fetched_at":"2026-06-13T17:21:47Z","count":1672,"tles":[{"name":"PLEIADES 1B","line1":"1 39019U 12068A   26163.82625541  .00000089  00000+0  28939-4 0  9991","line2":"2 39019  98.1948 238.9378 0001629  93.5599 266.5787 14.58557291720211","category":"Other"},{"name":"PLEIADES 1A","line1":"1 38012U 11076F   26163.87786885  .00000197  00000+0  52262-4 0  9991","line2":"2 38012  98.1978 239.0384 0001591  96.6447 353.9100 14.58568082771361","category":"Other"},{"name":"OCEANSAT-2","line1":"1 35931U 09051A   26163.83891396 -.00000030  00000+0  53784-5 0  9996","line2":"2 35931  98.2332 151.1241 0014885 249.2140 110.7432 13.99664777878722","category":"Other"},{"name":"ZIYUAN 1-02C (ZY 1-02C)","line1":"1 38038U 11079A   26163.89994515  .00000115  00000+0  52008-4 0  9993","line2":"2 38038  98.4077 231.2977 0005773 331.2257  83.5538 14.38210415758590","category":"Other"},{"name":"SARAL","line1":"1 39086U 13009A   26163.85107012  .00000086  00000+0  47689-4 0  9992","line2":"2 39086  98.5556 350.4733 0000937 334.6734  25.4404 14.32854901694982","category":"Other"},{"name":"RESOURCESAT-2","line1":"1 37387U 11015A   26163.86605007  .00000053  00000+0  44445-4 0  9998","line2":"2 37387  98.7644 231.3375 0010135 269.4395  90.5620 14.21605482785566","category":"Other"},{"name":"WORLDVIEW-2 (WV-2)","line1":"1 35946U 09055A   26163.84946091  .00000106  00000+0  49626-4 0  9992","line2":"2 35946  98.4736 237.3587 0003461 223.2562 136.8354 14.37898215875027","category":"Other"},{"name":"ALOS-2","line1":"1 39766U 14029A   26163.81066913  .00000859  00000+0  12193-3 0  9999","line2":"2 39766  97.9213 261.0367 0001607  89.2474 270.8921 14.79473349650930","category":"Other"},{"name":"YAOGAN-10","line1":"1 36834U 10038A   26163.91576628  .00001909  00000+0  22829-3 0  9992","line2":"2 36834  97.8982 187.3539 0001714  90.4268  28.0759 14.85337334856570","category":"Other"},{"name":"SKYSAT-A","line1":"1 39418U 13066C   26163.09861937  .00002667  00000+0  15424-3 0  9991","line2":"2 39418  97.3820 212.6576 0020529 335.9867  24.0405 15.12947558687715","category":"Other"},{"name":"COSMO-SKYMED 4","line1":"1 37216U 10060A   26163.85303097  .00000299  00000+0  44145-4 0  9990","line2":"2 37216  97.8887 347.5161 0001400  80.7742 279.3629 14.82149117843920","category":"Other"},{"name":"SMOS","line1":"1 36036U 09059A   26163.81130240  .00000243  00000+0  91457-4 0  9996","line2":"2 36036  98.4425 351.2104 0001325  89.2602 270.8738 14.39770430872826","category":"Other"},{"name":"GPM-CORE","line1":"1 39574U 14009C   26163.80645476  .00012667  00000+0  27621-3 0  9992","line2":"2 39574  64.9720 322.7977 0012061 249.9111 110.0731 15.44478469697133","category":"Other"},{"name":"SRMSAT","line1":"1 37841U 11058D   26162.51581192  .00000355  00000+0  48954-4 0  9993","line2":"2 37841  19.9715  93.7945 0011909 141.4141  27.1536 14.11574372757019","category":"Other"},{"name":"HAIYANG-2A","line1":"1 37781U 11043A   26163.88902197  .00000037  00000+0  85197-4 0  9990","line2":"2 37781  99.3393 166.6596 0006191  99.1731 261.0119 13.74458670746068","category":"Other"},{"name":"ARIRANG-5 (KOMPSAT-5)","line1":"1 39227U 13042A   26163.84298010  .00001598  00000+0  11855-3 0  9998","line2":"2 39227  97.6214 350.6054 0004976 131.3525 228.8130 15.04481391703205","category":"Other"},{"name":"GAOFEN-1","line1":"1 39150U 13018A   26164.06473796 -.00000026  00000+0  36200-5 0  9996","line2":"2 39150  97.9100 236.2167 0015717 280.3177  79.6261 14.76532386707631","category":"Other"},{"name":"LANDSAT 8","line1":"1 39084U 13008A   26163.83584058  .00000329  00000+0  83205-4 0  9990","line2":"2 39084  98.2302 234.0226 0001378  93.5093 266.6263 14.57091866697265","category":"Other"},{"name":"SENTINEL-1A","line1":"1 39634U 14016A   26163.84178249  .00000041  00000+0  18421-4 0  9992","line2":"2 39634  98.1780 171.4377 0001453  83.1868 276.9497 14.59199497649389","category":"Other"},{"name":"YAOGAN-7","line1":"1 36110U 09069A   26163.28212008  .00000481  00000+0  73585-4 0  9990","line2":"2 36110  98.0079  49.1793 0025819  56.8914 303.4770 14.78005257888903","category":"Other"},{"name":"DUBAISAT-1","line1":"1 35682U 09041B   26163.27298841  .00000699  00000+0  11114-3 0  9991","line2":"2 35682  98.0046 296.5849 0011741  87.6859 272.5694 14.75116057904378","category":"Other"},{"name":"CARTOSAT-2B","line1":"1 36795U 10035A   26163.87346905  .00000123  00000+0  23975-4 0  9994","line2":"2 36795  97.9960 214.4506 0010804 198.1484 161.9343 14.78654428859213","category":"Other"},{"name":"KAZEOSAT 1","line1":"1 39731U 14024A   26163.85861447  .00000047  00000+0  27197-4 0  9995","line2":"2 39731  98.3209 236.4132 0001421  75.1401 284.9946 14.42077954637936","category":"Other"},{"name":"GOKTURK 2","line1":"1 39030U 12073A   26163.80856819  .00000548  00000+0  87424-4 0  9996","line2":"2 39030  97.6827   1.4601 0001770  57.9773 302.1609 14.75539290723863","category":"Other"}]}