OBJECT_NAME,OBJECT_ID,EPOCH,MEAN_MOTION,ECCENTRICITY,INCLINATION,RA_OF_ASC_NODE,ARG_OF_PERICENTER,MEAN_ANOMALY,EPHEMERIS_TYPE,CLASSIFICATION_TYPE,NORAD_CAT_ID,ELEMENT_SET_NO,REV_AT_EPOCH,BSTAR,MEAN_MOTION_DOT,MEAN_MOTION_DDOT
DUBAISAT-1,2009-041B,2026-06-12T06:33:06.198624,14.75116057,.00117411,98.0046,296.5849,87.6859,272.5694,0,U,35682,999,90437,.1111437E-3,.699E-5,0
OCEANSAT-2,2009-051A,2026-06-12T20:08:02.166144,13.99664777,.0014885,98.2332,151.1241,249.2140,110.7432,0,U,35931,999,87872,.53784E-5,-.3E-6,0
WORLDVIEW-2 (WV-2),2009-055A,2026-06-12T20:23:13.422624,14.37898215,.0003461,98.4736,237.3587,223.2562,136.8354,0,U,35946,999,87502,.49626E-4,.106E-5,0
SMOS,2009-059A,2026-06-12T19:28:16.527360,14.39770430,.0001325,98.4425,351.2104,89.2602,270.8738,0,U,36036,999,87282,.91457E-4,.243E-5,0
YAOGAN-7,2009-069A,2026-06-12T06:46:15.174912,14.78005257,.00258198,98.0079,49.1793,56.8914,303.4770,0,U,36110,999,88890,.73585398E-4,.481E-5,0
CARTOSAT-2B,2010-035A,2026-06-12T20:57:47.725920,14.78654428,.0010804,97.9960,214.4506,198.1484,161.9343,0,U,36795,999,85921,.23975E-4,.123E-5,0
YAOGAN-10,2010-038A,2026-06-12T21:58:42.206592,14.85337334,.0001714,97.8982,187.3539,90.4268,28.0759,0,U,36834,999,85657,.22829E-3,.1909E-4,0
COSMO-SKYMED 4,2010-060A,2026-06-12T20:28:21.875808,14.82149117,.00014,97.8887,347.5161,80.7742,279.3629,0,U,37216,999,84392,.44145E-4,.299E-5,0
RESOURCESAT-2,2011-015A,2026-06-12T20:47:06.726048,14.21605482,.0010135,98.7644,231.3375,269.4395,90.5620,0,U,37387,999,78556,.44445E-4,.53E-6,0
HAIYANG-2A,2011-043A,2026-06-12T21:20:11.498208,13.74458670,.0006191,99.3393,166.6596,99.1731,261.0119,0,U,37781,999,74606,.85197E-4,.37E-6,0
SRMSAT,2011-058D,2026-06-11T12:22:46.149888,14.11574372,.0011909,19.9715,93.7945,141.4141,27.1536,0,U,37841,999,75701,.48954E-4,.355E-5,0
PLEIADES 1A,2011-076F,2026-06-12T21:04:07.868640,14.58568082,.0001591,98.1978,239.0384,96.6447,353.9100,0,U,38012,999,77136,.52262E-4,.197E-5,0
ZIYUAN 1-02C (ZY 1-02C),2011-079A,2026-06-12T21:35:55.260960,14.38210415,.0005773,98.4077,231.2977,331.2257,83.5538,0,U,38038,999,75859,.52008E-4,.115E-5,0
PLEIADES 1B,2012-068A,2026-06-12T19:49:48.467424,14.58557291,.0001629,98.1948,238.9378,93.5599,266.5787,0,U,39019,999,72021,.28939E-4,.89E-6,0
GOKTURK 2,2012-073A,2026-06-12T19:24:20.291616,14.75539290,.000177,97.6827,1.4601,57.9773,302.1609,0,U,39030,999,72386,.87424E-4,.548E-5,0
LANDSAT 8,2013-008A,2026-06-12T20:03:36.626112,14.57091866,.0001378,98.2302,234.0226,93.5093,266.6263,0,U,39084,999,69726,.83205E-4,.329E-5,0
SARAL,2013-009A,2026-06-12T20:25:32.458368,14.32854901,.0000937,98.5556,350.4733,334.6734,25.4404,0,U,39086,999,69498,.47689E-4,.86E-6,0
GAOFEN-1,2013-018A,2026-06-13T01:33:13.359744,14.76532386,.0015717,97.9100,236.2167,280.3177,79.6261,0,U,39150,999,70763,.362E-5,-.26E-6,0
ARIRANG-5 (KOMPSAT-5),2013-042A,2026-06-12T20:13:53.480640,15.04481391,.0004976,97.6214,350.6054,131.3525,228.8130,0,U,39227,999,70320,.11855E-3,.1598E-4,0
SKYSAT-A,2013-066C,2026-06-12T02:22:00.713568,15.12947558,.00205299,97.3820,212.6576,335.9867,24.0405,0,U,39418,999,68771,.15423868E-3,.2667E-4,0
GPM-CORE,2014-009C,2026-06-12T19:21:17.691264,15.44478469,.0012061,64.9720,322.7977,249.9111,110.0731,0,U,39574,999,69713,.27621E-3,.12667E-3,0
SENTINEL-1A,2014-016A,2026-06-12T20:12:10.007136,14.59199497,.0001453,98.1780,171.4377,83.1868,276.9497,0,U,39634,999,64938,.18421E-4,.41E-6,0
KAZEOSAT 1,2014-024A,2026-06-12T20:36:24.290208,14.42077954,.0001421,98.3209,236.4132,75.1401,284.9946,0,U,39731,999,63793,.27197E-4,.47E-6,0
ALOS-2,2014-029A,2026-06-12T19:27:21.812832,14.79473349,.0001607,97.9213,261.0367,89.2474,270.8921,0,U,39766,999,65093,.12193E-3,.859E-5,0
